{
  "type": "FeatureCollection",
  "features": [
    {
      "type": "Feature",
      "properties": {
        "norad_id": 66523,
        "name": "STARLINK-35969",
        "group": "last-30-days",
        "lat": 11.740936470416402,
        "lon": -93.06252983447803,
        "alt_km": 352.3389296397945,
        "timestamp": "2025-12-04T23:34:04.491046+00:00",
        "meta_object_name": "STARLINK-35969",
        "meta_object_id": "2025-265H",
        "meta_epoch": "2025-12-04T18:00:02.000160",
        "meta_mean_motion": 15.7275098,
        "meta_eccentricity": 0.0001183,
        "meta_inclination": 42.9999,
        "meta_ra_of_asc_node": 101.227,
        "meta_arg_of_pericenter": 274.0178,
        "meta_mean_anomaly": 13.9335,
        "meta_ephemeris_type": 0,
        "meta_classification_type": "U",
        "meta_norad_cat_id": 66523,
        "meta_element_set_no": 999,
        "meta_rev_at_epoch": 371,
        "meta_bstar": -0.015089,
        "meta_mean_motion_dot": -0.01833358,
        "meta_mean_motion_ddot": 0,
        "tle_line1": "1 66523U 25265H   25338.75002315 -.01833358  00000+0 -15089-1 0  9992",
        "tle_line2": "2 66523  42.9999 101.2270 0001183 274.0178  13.9335 15.72750980  3710"
      },
      "geometry": {
        "type": "Point",
        "coordinates": [
          -93.06252983447803,
          11.740936470416402
        ]
      }
    },
    {
      "type": "Feature",
      "properties": {
        "norad_id": 66524,
        "name": "STARLINK-35687",
        "group": "last-30-days",
        "lat": 10.463880985807732,
        "lon": -91.61110648261486,
        "alt_km": 352.5297893604511,
        "timestamp": "2025-12-04T23:34:04.491056+00:00",
        "meta_object_name": "STARLINK-35687",
        "meta_object_id": "2025-265J",
        "meta_epoch": "2025-12-04T18:00:02.000160",
        "meta_mean_motion": 15.72750678,
        "meta_eccentricity": 0.0001396,
        "meta_inclination": 42.9999,
        "meta_ra_of_asc_node": 101.2224,
        "meta_arg_of_pericenter": 272.7344,
        "meta_mean_anomaly": 17.1351,
        "meta_ephemeris_type": 0,
        "meta_classification_type": "U",
        "meta_norad_cat_id": 66524,
        "meta_element_set_no": 999,
        "meta_rev_at_epoch": 371,
        "meta_bstar": -0.015088,
        "meta_mean_motion_dot": -0.01833501,
        "meta_mean_motion_ddot": 0,
        "tle_line1": "1 66524U 25265J   25338.75002315 -.01833501  00000+0 -15088-1 0  9992",
        "tle_line2": "2 66524  42.9999 101.2224 0001396 272.7344  17.1351 15.72750678  3714"
      },
      "geometry": {
        "type": "Point",
        "coordinates": [
          -91.61110648261486,
          10.463880985807732
        ]
      }
    },
    {
      "type": "Feature",
      "properties": {
        "norad_id": 66525,
        "name": "STARLINK-35975",
        "group": "last-30-days",
        "lat": 9.179266631658386,
        "lon": -90.17046762753041,
        "alt_km": 352.5245655791996,
        "timestamp": "2025-12-04T23:34:04.491068+00:00",
        "meta_object_name": "STARLINK-35975",
        "meta_object_id": "2025-265K",
        "meta_epoch": "2025-12-04T18:00:02.000160",
        "meta_mean_motion": 15.72750749,
        "meta_eccentricity": 0.0001204,
        "meta_inclination": 42.9998,
        "meta_ra_of_asc_node": 101.2179,
        "meta_arg_of_pericenter": 266.0997,
        "meta_mean_anomaly": 25.6848,
        "meta_ephemeris_type": 0,
        "meta_classification_type": "U",
        "meta_norad_cat_id": 66525,
        "meta_element_set_no": 999,
        "meta_rev_at_epoch": 371,
        "meta_bstar": -0.015075,
        "meta_mean_motion_dot": -0.01831921,
        "meta_mean_motion_ddot": 0,
        "tle_line1": "1 66525U 25265K   25338.75002315 -.01831921  00000+0 -15075-1 0  9993",
        "tle_line2": "2 66525  42.9998 101.2179 0001204 266.0997  25.6848 15.72750749  3715"
      },
      "geometry": {
        "type": "Point",
        "coordinates": [
          -90.17046762753041,
          9.179266631658386
        ]
      }
    },
    {
      "type": "Feature",
      "properties": {
        "norad_id": 66526,
        "name": "STARLINK-35932",
        "group": "last-30-days",
        "lat": 7.889554410894124,
        "lon": -88.74117502408473,
        "alt_km": 352.8527650247679,
        "timestamp": "2025-12-04T23:34:04.491078+00:00",
        "meta_object_name": "STARLINK-35932",
        "meta_object_id": "2025-265L",
        "meta_epoch": "2025-12-04T18:00:02.000160",
        "meta_mean_motion": 15.72751241,
        "meta_eccentricity": 0.000145,
        "meta_inclination": 42.9999,
        "meta_ra_of_asc_node": 101.2131,
        "meta_arg_of_pericenter": 273.0085,
        "meta_mean_anomaly": 20.6944,
        "meta_ephemeris_type": 0,
        "meta_classification_type": "U",
        "meta_norad_cat_id": 66526,
        "meta_element_set_no": 999,
        "meta_rev_at_epoch": 360,
        "meta_bstar": -0.015087,
        "meta_mean_motion_dot": -0.01833395,
        "meta_mean_motion_ddot": 0,
        "tle_line1": "1 66526U 25265L   25338.75002315 -.01833395  00000+0 -15087-1 0  9994",
        "tle_line2": "2 66526  42.9999 101.2131 0001450 273.0085  20.6944 15.72751241  3602"
      },
      "geometry": {
        "type": "Point",
        "coordinates": [
          -88.74117502408473,
          7.889554410894124
        ]
      }
    },
    {
      "type": "Feature",
      "properties": {
        "norad_id": 66527,
        "name": "STARLINK-35935",
        "group": "last-30-days",
        "lat": 6.5926791961292865,
        "lon": -87.31788731392032,
        "alt_km": 352.9583428493088,
        "timestamp": "2025-12-04T23:34:04.491089+00:00",
        "meta_object_name": "STARLINK-35935",
        "meta_object_id": "2025-265M",
        "meta_epoch": "2025-12-04T18:00:02.000160",
        "meta_mean_motion": 15.72747158,
        "meta_eccentricity": 0.0001073,
        "meta_inclination": 43,
        "meta_ra_of_asc_node": 101.2087,
        "meta_arg_of_pericenter": 274.1193,
        "meta_mean_anomaly": 21.5013,
        "meta_ephemeris_type": 0,
        "meta_classification_type": "U",
        "meta_norad_cat_id": 66527,
        "meta_element_set_no": 999,
        "meta_rev_at_epoch": 371,
        "meta_bstar": -0.015047,
        "meta_mean_motion_dot": -0.01828613,
        "meta_mean_motion_ddot": 0,
        "tle_line1": "1 66527U 25265M   25338.75002315 -.01828613  00000+0 -15047-1 0  9998",
        "tle_line2": "2 66527  43.0000 101.2087 0001073 274.1193  21.5013 15.72747158  3712"
      },
      "geometry": {
        "type": "Point",
        "coordinates": [
          -87.31788731392032,
          6.5926791961292865
        ]
      }
    },
    {
      "type": "Feature",
      "properties": {
        "norad_id": 66528,
        "name": "STARLINK-35928",
        "group": "last-30-days",
        "lat": 5.29437751186885,
        "lon": -85.90564091051665,
        "alt_km": 353.0885665021615,
        "timestamp": "2025-12-04T23:34:04.491101+00:00",
        "meta_object_name": "STARLINK-35928",
        "meta_object_id": "2025-265N",
        "meta_epoch": "2025-12-04T18:00:02.000160",
        "meta_mean_motion": 15.72749415,
        "meta_eccentricity": 0.0001256,
        "meta_inclination": 43,
        "meta_ra_of_asc_node": 101.2036,
        "meta_arg_of_pericenter": 271.1375,
        "meta_mean_anomaly": 26.4001,
        "meta_ephemeris_type": 0,
        "meta_classification_type": "U",
        "meta_norad_cat_id": 66528,
        "meta_element_set_no": 999,
        "meta_rev_at_epoch": 371,
        "meta_bstar": -0.015071,
        "meta_mean_motion_dot": -0.01831498,
        "meta_mean_motion_ddot": 0,
        "tle_line1": "1 66528U 25265N   25338.75002315 -.01831498  00000+0 -15071-1 0  9991",
        "tle_line2": "2 66528  43.0000 101.2036 0001256 271.1375  26.4001 15.72749415  3718"
      },
      "geometry": {
        "type": "Point",
        "coordinates": [
          -85.90564091051665,
          5.29437751186885
        ]
      }
    },
    {
      "type": "Feature",
      "properties": {
        "norad_id": 66529,
        "name": "STARLINK-35933",
        "group": "last-30-days",
        "lat": 3.992283152946526,
        "lon": -84.49862321046649,
        "alt_km": 353.1662498973519,
        "timestamp": "2025-12-04T23:34:04.491116+00:00",
        "meta_object_name": "STARLINK-35933",
        "meta_object_id": "2025-265P",
        "meta_epoch": "2025-12-04T18:00:02.000160",
        "meta_mean_motion": 15.72748594,
        "meta_eccentricity": 0.0001249,
        "meta_inclination": 42.9999,
        "meta_ra_of_asc_node": 101.1986,
        "meta_arg_of_pericenter": 267.2977,
        "meta_mean_anomaly": 32.1571,
        "meta_ephemeris_type": 0,
        "meta_classification_type": "U",
        "meta_norad_cat_id": 66529,
        "meta_element_set_no": 999,
        "meta_rev_at_epoch": 371,
        "meta_bstar": -0.015057,
        "meta_mean_motion_dot": -0.01829925,
        "meta_mean_motion_ddot": 0,
        "tle_line1": "1 66529U 25265P   25338.75002315 -.01829925  00000+0 -15057-1 0  9998",
        "tle_line2": "2 66529  42.9999 101.1986 0001249 267.2977  32.1571 15.72748594  3716"
      },
      "geometry": {
        "type": "Point",
        "coordinates": [
          -84.49862321046649,
          3.992283152946526
        ]
      }
    }
  ]
}